NORAD_CAT_ID,OBJECT_NAME,OBJECT_TYPE,EPOCH,MEAN_MOTION,ECCENTRICITY,INCLINATION,RA_OF_ASC_NODE,ARG_OF_PERICENTER,MEAN_ANOMALY,BSTAR,MEAN_MOTION_DOT,MEAN_MOTION_DDOT,TLE_LINE0,TLE_LINE1,TLE_LINE2,SEMIMAJOR_AXIS,PERIOD,APOGEE,PERIGEE,DECAYED
51718.0,STARLINK-3546,PAYLOAD,2022-12-29 04:06:05,15.08838096,0.0002846,53.2159,165.8177,42.6133,317.508,3.6474e-06,-2.31e-06,0.0,0 STARLINK-3546,1 51718U 22016E   22363.17089575 -.00000231  00000-0  36474-5 0  9997,2 51718  53.2159 165.8177 0002846  42.6133 317.5080 15.08838096 48377,6917.886,95.438,541.72,537.7819999999998,0.0
51718.0,STARLINK-3546,PAYLOAD,2022-12-29 10:27:37,15.08839718,0.0003469,53.2159,164.6281,41.2909,318.8345,4.7323e-05,4.64e-06,0.0,0 STARLINK-3546,1 51718U 22016E   22363.43585562  .00000464  00000-0  47323-4 0  9994,2 51718  53.2159 164.6281 0003469  41.2909 318.8345 15.08839718 48480,6917.880999999999,95.438,542.146,537.346,0.0
51718.0,STARLINK-3546,PAYLOAD,2022-12-30 03:56:51,15.08850642,0.0003477,53.2159,161.3573,42.5181,317.6079,8.4795e-05,1.061e-05,0.0,0 STARLINK-3546,1 51718U 22016E   22364.16448599  .00001061  00000-0  84795-4 0  9991,2 51718  53.2159 161.3573 0003477  42.5181 317.6079 15.08850642 48528,6917.848000000001,95.437,542.118,537.308,0.0
51718.0,STARLINK-3546,PAYLOAD,2022-12-30 10:18:24,15.08842734,0.0003441999999999,53.2158,160.1685,42.5901,317.5358,0.0001356,1.87e-05,0.0,0 STARLINK-3546,1 51718U 22016E   22364.42944798  .00001870  00000-0  13560-3 0  9991,2 51718  53.2158 160.1685 0003442  42.5901 317.5358 15.08842734 48634,6917.871999999999,95.437,542.118,537.356,0.0
51718.0,STARLINK-3546,PAYLOAD,2022-12-30 18:15:20,15.0884038,0.0003447,53.2162,158.6813,43.1652,316.961,0.00010779,1.427e-05,0.0,0 STARLINK-3546,1 51718U 22016E   22364.76065130  .00001427  00000-0  10779-3 0  9999,2 51718  53.2162 158.6813 0003447  43.1652 316.9610 15.08840380 48616,6917.879,95.438,542.129,537.36,0.0
51718.0,STARLINK-3546,PAYLOAD,2022-12-31 03:47:38,15.08848301,0.0003447,53.2165,156.8972,43.6742,316.4523,0.00014577,2.033e-05,0.0,0 STARLINK-3546,1 51718U 22016E   22365.15808415  .00002033  00000-0  14577-3 0  9998,2 51718  53.2165 156.8972 0003447  43.6742 316.4523 15.08848301 48675,6917.855,95.437,542.105,537.335,0.0
51718.0,STARLINK-3546,PAYLOAD,2022-12-31 10:09:10,15.0885024,0.0003458999999999,53.2164,155.7076,44.31399999999999,315.8129,0.00013699,1.893e-05,0.0,0 STARLINK-3546,1 51718U 22016E   22365.42304211  .00001893  00000-0  13699-3 0  9990,2 51718  53.2164 155.7076 0003459  44.3140 315.8129 15.08850240 48782,6917.849,95.437,542.107,537.321,0.0
51718.0,STARLINK-3546,PAYLOAD,2022-12-31 16:30:43,15.08845021,0.0003458,53.2167,154.5179,44.8424,315.2847,9.0622e-05,1.154e-05,0.0,0 STARLINK-3546,1 51718U 22016E   22365.68800595  .00001154  00000-0  90622-4 0  9996,2 51718  53.2167 154.5179 0003458  44.8424 315.2847 15.08845021 48822,6917.865,95.437,542.122,537.3380000000002,0.0
51718.0,STARLINK-3546,PAYLOAD,2023-01-01 13:10:45,15.0882845,0.0003218999999999,53.2167,150.6513,45.1361,314.9892,-5.134e-05,-1.106e-05,0.0,0 STARLINK-3546,1 51718U 22016E   23001.54913774 -.00001106  00000-0 -51340-4 0  9996,2 51718  53.2167 150.6513 0003219  45.1361 314.9892 15.08828450 48889,6917.916,95.438,542.008,537.554,0.0
51718.0,STARLINK-3546,PAYLOAD,2023-01-01 16:21:31,15.08830398,0.0003273999999999,53.2166,150.0568,44.1644,315.9609,-5.4122e-05,-1.15e-05,0.0,0 STARLINK-3546,1 51718U 22016E   23001.68161770 -.00001150  00000-0 -54122-4 0  9992,2 51718  53.2166 150.0568 0003274  44.1644 315.9609 15.08830398 48977,6917.91,95.438,542.04,537.51,0.0
51718.0,STARLINK-3546,PAYLOAD,2023-01-02 13:01:32,15.08833272,0.0003395,53.2165,146.1918,44.19300000000001,315.9333,-1.0875e-05,-4.62e-06,0.0,0 STARLINK-3546,1 51718U 22016E   23002.54273938 -.00000462  00000-0 -10875-4 0  9990,2 51718  53.2165 146.1918 0003395  44.1930 315.9333 15.08833272 49107,6917.901,95.438,542.115,537.4169999999998,0.0
51718.0,STARLINK-3546,PAYLOAD,2023-01-02 16:12:18,15.08834302,0.0003475,53.2165,145.5978,42.50899999999999,317.6171,3.0061000000000007e-06,-2.41e-06,0.0,0 STARLINK-3546,1 51718U 22016E   23002.67521916 -.00000241  00000-0  30061-5 0  9990,2 51718  53.2165 145.5978 0003475  42.5090 317.6171 15.08834302 49052,6917.898,95.438,542.1669999999998,537.359,0.0
51718.0,STARLINK-3546,PAYLOAD,2023-01-03 19:13:53,15.08825265,0.0003491,53.2167,140.5428,41.9172,318.2086,0.00012835,1.754e-05,0.0,0 STARLINK-3546,1 51718U 22016E   23003.80130880  .00001754  00000-0  12835-3 0  9998,2 51718  53.2167 140.5428 0003491  41.9172 318.2086 15.08825265 49220,6917.925,95.438,542.205,537.375,0.0
51718.0,STARLINK-3546,PAYLOAD,2023-01-04 15:53:53,15.08835556,0.0003531,53.2163,136.6775,45.041,315.0868,0.00011784,1.587e-05,0.0,0 STARLINK-3546,1 51718U 22016E   23004.66242809  .00001587  00000-0  11784-3 0  9994,2 51718  53.2163 136.6775 0003531  45.0410 315.0868 15.08835556 49353,6917.894,95.438,542.202,537.316,0.0
51718.0,STARLINK-3546,PAYLOAD,2023-01-05 10:58:32,15.08814912,0.0003269,53.2159,133.1111,45.0202,315.1055,8.373899999999999e-05,1.043e-05,0.0,0 STARLINK-3546,1 51718U 22016E   23005.45732221  .00001043  00000-0  83739-4 0  9991,2 51718  53.2159 133.1111 0003269  45.0202 315.1055 15.08814912 49476,6917.956999999999,95.439,542.0840000000002,537.561,0.0
51718.0,STARLINK-3546,PAYLOAD,2023-01-05 17:20:04,15.08836521,0.0004158,53.2149,131.9172,54.9351,305.2031,-3.7887e-05,-8.92e-06,0.0,0 STARLINK-3546,1 51718U 22016E   23005.72227963 -.00000892  00000-0 -37887-4 0  9999,2 51718  53.2149 131.9172 0004158  54.9351 305.2031 15.08836521 49586,6917.891,95.438,542.632,536.88,0.0
51718.0,STARLINK-3546,PAYLOAD,2023-01-07 10:40:06,15.08831249,0.0003431,53.2162,124.1879,48.6062,311.5224,0.00013264,1.822e-05,0.0,0 STARLINK-3546,1 51718U 22016E   23007.44452272  .00001822  00000-0  13264-3 0  9997,2 51718  53.2162 124.1879 0003431  48.6062 311.5224 15.08831249 49778,6917.906999999998,95.438,542.146,537.399,0.0
51718.0,STARLINK-3546,PAYLOAD,2023-01-07 13:50:52,15.08834093,0.0003251,53.2163,123.5933,48.8844,311.2428,0.00016084,2.272e-05,0.0,0 STARLINK-3546,1 51718U 22016E   23007.57700199  .00002272  00000-0  16084-3 0  9998,2 51718  53.2163 123.5933 0003251  48.8844 311.2428 15.08834093 49866,6917.898,95.438,542.012,537.514,0.0
51718.0,STARLINK-3546,PAYLOAD,2023-01-08 13:41:39,15.0884759,0.0003339,53.2168,119.1342,44.7213,315.4048,8.8539e-05,1.121e-05,0.0,0 STARLINK-3546,1 51718U 22016E   23008.57059546  .00001121  00000-0  88539-4 0  9999,2 51718  53.2168 119.1342 0003339  44.7213 315.4048 15.08847590 49947,6917.857,95.437,542.0319999999998,537.4119999999998,0.0
51718.0,STARLINK-3546,PAYLOAD,2023-01-09 13:32:26,15.08843858,0.0002982,53.2163,114.6724,59.2319,300.8966,0.00018886,2.719e-05,0.0,0 STARLINK-3546,1 51718U 22016E   23009.56419740  .00002719  00000-0  18886-3 0  9996,2 51718  53.2163 114.6724 0002982  59.2319 300.8966 15.08843858 50163,6917.8690000000015,95.437,541.797,537.6709999999998,0.0
51718.0,STARLINK-3546,PAYLOAD,2023-01-09 16:43:12,15.08850956,0.0003054,53.2161,114.0779,59.5272,300.6022,0.00030632,4.592e-05,0.0,0 STARLINK-3546,1 51718U 22016E   23009.69667453  .00004592  00000-0  30632-3 0  9990,2 51718  53.2161 114.0779 0003054  59.5272 300.6022 15.08850956 50110,6917.847,95.437,541.825,537.599,0.0
51718.0,STARLINK-3546,PAYLOAD,2023-01-10 08:37:04,15.08832034,0.0003437,53.2144,111.105,62.0612,298.0727,-0.0001021,-1.913e-05,0.0,0 STARLINK-3546,1 51718U 22016E   23010.35908326 -.00001913  00000-0 -10210-3 0  9998,2 51718  53.2144 111.1050 0003437  62.0612 298.0727 15.08832034 50213,6917.905,95.438,542.1469999999998,537.3919999999998,0.0
51718.0,STARLINK-3546,PAYLOAD,2023-01-10 13:23:13,15.08845929,0.0002847,53.2164,110.2129,60.075,300.0524,0.00028005,4.172e-05,0.0,0 STARLINK-3546,1 51718U 22016E   23010.55779847  .00004172  00000-0  28005-3 0  9993,2 51718  53.2164 110.2129 0002847  60.0750 300.0524 15.08845929 50314,6917.861999999999,95.437,541.697,537.758,0.0
51718.0,STARLINK-3546,PAYLOAD,2023-01-11 13:14:00,15.08854022,0.0002937,53.2161,105.7526,62.7725,297.3566,0.0005375,8.28e-05,0.0,0 STARLINK-3546,1 51718U 22016E   23011.55139911  .00008280  00000-0  53750-3 0  9995,2 51718  53.2161 105.7526 0002937  62.7725 297.3566 15.08854022 50398,6917.838000000002,95.437,541.734,537.6709999999998,0.0
51718.0,STARLINK-3546,PAYLOAD,2023-01-11 22:46:19,15.08846993,0.0002845,53.2143,103.9681,67.1798,292.9495,0.00025122,3.713e-05,0.0,0 STARLINK-3546,1 51718U 22016E   23011.94884084  .00003713  00000-0  25122-3 0  9994,2 51718  53.2143 103.9681 0002845  67.1798 292.9495 15.08846993 50454,6917.859,95.437,541.692,537.756,0.0
51718.0,STARLINK-3546,PAYLOAD,2023-01-12 14:40:11,15.08844369,0.0002906,53.2162,100.9945,66.354,293.7757,0.00011933,1.611e-05,0.0,0 STARLINK-3546,1 51718U 22016E   23012.61123915  .00001611  00000-0  11933-3 0  9998,2 51718  53.2162 100.9945 0002906  66.3540 293.7757 15.08844369 50623,6917.866999999998,95.437,541.742,537.722,0.0
51718.0,STARLINK-3546,PAYLOAD,2023-01-12 22:37:07,15.08834891,0.0002886,53.2156,99.5061,66.5226,293.6069,-6.4692e-05,-1.318e-05,0.0,0 STARLINK-3546,1 51718U 22016E   23012.94244235 -.00001318  00000-0 -64692-4 0  9990,2 51718  53.2156  99.5061 0002886  66.5226 293.6069 15.08834891 50600,6917.896,95.438,541.758,537.765,0.0
51718.0,STARLINK-3546,PAYLOAD,2023-01-13 12:55:35,15.08843719,0.0002371,53.2158,96.8314,76.3543,283.7713,1.2033e-05,-9.7e-07,0.0,0 STARLINK-3546,1 51718U 22016E   23013.53860111 -.00000097  00000-0  12033-4 0  9997,2 51718  53.2158  96.8314 0002371  76.3543 283.7713 15.08843719 50765,6917.869000000001,95.437,541.374,538.094,0.0
51718.0,STARLINK-3546,PAYLOAD,2023-01-13 14:30:58,15.08846245,0.0002273,53.2157,96.5341,82.4074,277.7177,4.9901e-05,5.06e-06,0.0,0 STARLINK-3546,1 51718U 22016E   23013.60483916  .00000506  00000-0  49901-4 0  9997,2 51718  53.2157  96.5341 0002273  82.4074 277.7177 15.08846245 50707,6917.861,95.437,541.299,538.154,0.0
